[{"OBJECT_NAME":"STARLINK-30452","OBJECT_ID":"2023-147N","EPOCH":"2023-11-20T10:40:18.554016","MEAN_MOTION":15.15957118,"ECCENTRICITY":0.0001218,"INCLINATION":42.9993,"RA_OF_ASC_NODE":221.8425,"ARG_OF_PERICENTER":253.5882,"MEAN_ANOMALY":106.4832,"EPHEMERIS_TYPE":0,"CLASSIFICATION_TYPE":"U","NORAD_CAT_ID":57925,"ELEMENT_SET_NO":999,"REV_AT_EPOCH":1007,"BSTAR":9.0865e-5,"MEAN_MOTION_DOT":1.543e-5,"MEAN_MOTION_DDOT":0},{"OBJECT_NAME":"STARLINK-30468","OBJECT_ID":"2023-147P","EPOCH":"2023-11-20T10:43:59.445984","MEAN_MOTION":15.15155504,"ECCENTRICITY":0.0001966,"INCLINATION":42.999,"RA_OF_ASC_NODE":221.8612,"ARG_OF_PERICENTER":268.976,"MEAN_ANOMALY":91.0862,"EPHEMERIS_TYPE":0,"CLASSIFICATION_TYPE":"U","NORAD_CAT_ID":57926,"ELEMENT_SET_NO":999,"REV_AT_EPOCH":1007,"BSTAR":0.00079832,"MEAN_MOTION_DOT":0.00015046,"MEAN_MOTION_DDOT":0},{"OBJECT_NAME":"STARLINK-30459","OBJECT_ID":"2023-147Q","EPOCH":"2023-11-20T10:33:44.532000","MEAN_MOTION":15.15974871,"ECCENTRICITY":0.0001234,"INCLINATION":42.9982,"RA_OF_ASC_NODE":221.807,"ARG_OF_PERICENTER":258.4322,"MEAN_ANOMALY":101.6387,"EPHEMERIS_TYPE":0,"CLASSIFICATION_TYPE":"U","NORAD_CAT_ID":57927,"ELEMENT_SET_NO":999,"REV_AT_EPOCH":1007,"BSTAR":0.00022398,"MEAN_MOTION_DOT":4.148e-5,"MEAN_MOTION_DDOT":0},{"OBJECT_NAME":"STARLINK-30448","OBJECT_ID":"2023-147R","EPOCH":"2023-11-20T10:30:27.381024","MEAN_MOTION":15.15977806,"ECCENTRICITY":0.0001557,"INCLINATION":43,"RA_OF_ASC_NODE":221.7921,"ARG_OF_PERICENTER":257.4733,"MEAN_ANOMALY":102.594,"EPHEMERIS_TYPE":0,"CLASSIFICATION_TYPE":"U","NORAD_CAT_ID":57928,"ELEMENT_SET_NO":999,"REV_AT_EPOCH":999,"BSTAR":0.00011748,"MEAN_MOTION_DOT":2.065e-5,"MEAN_MOTION_DDOT":0},{"OBJECT_NAME":"STARLINK-30475","OBJECT_ID":"2023-147S","EPOCH":"2023-11-20T02:03:17.002944","MEAN_MOTION":15.15972297,"ECCENTRICITY":0.0001274,"INCLINATION":42.9993,"RA_OF_ASC_NODE":223.4485,"ARG_OF_PERICENTER":269.0542,"MEAN_ANOMALY":91.0159,"EPHEMERIS_TYPE":0,"CLASSIFICATION_TYPE":"U","NORAD_CAT_ID":57929,"ELEMENT_SET_NO":999,"REV_AT_EPOCH":1002,"BSTAR":0.00017198,"MEAN_MOTION_DOT":3.13e-5,"MEAN_MOTION_DDOT":0},{"OBJECT_NAME":"STARLINK-30476","OBJECT_ID":"2023-147T","EPOCH":"2023-11-20T14:00:01.000224","MEAN_MOTION":15.45545061,"ECCENTRICITY":0.0001585,"INCLINATION":42.9997,"RA_OF_ASC_NODE":204.5563,"ARG_OF_PERICENTER":267.9757,"MEAN_ANOMALY":64.7569,"EPHEMERIS_TYPE":0,"CLASSIFICATION_TYPE":"U","NORAD_CAT_ID":57930,"ELEMENT_SET_NO":999,"REV_AT_EPOCH":584,"BSTAR":-0.026417,"MEAN_MOTION_DOT":-0.01184213,"MEAN_MOTION_DDOT":0},{"OBJECT_NAME":"STARLINK-30488","OBJECT_ID":"2023-147U","EPOCH":"2023-11-20T10:27:11.100960","MEAN_MOTION":15.15977038,"ECCENTRICITY":0.000119,"INCLINATION":42.9983,"RA_OF_ASC_NODE":221.7746,"ARG_OF_PERICENTER":260.1653,"MEAN_ANOMALY":99.906,"EPHEMERIS_TYPE":0,"CLASSIFICATION_TYPE":"U","NORAD_CAT_ID":57931,"ELEMENT_SET_NO":999,"REV_AT_EPOCH":1011,"BSTAR":0.00021999,"MEAN_MOTION_DOT":4.07e-5,"MEAN_MOTION_DDOT":0},{"OBJECT_NAME":"STARLINK-30471","OBJECT_ID":"2023-147V","EPOCH":"2023-11-20T10:00:57.552192","MEAN_MOTION":15.15972093,"ECCENTRICITY":0.0001264,"INCLINATION":42.9982,"RA_OF_ASC_NODE":221.6401,"ARG_OF_PERICENTER":272.5009,"MEAN_ANOMALY":87.5694,"EPHEMERIS_TYPE":0,"CLASSIFICATION_TYPE":"U","NORAD_CAT_ID":57932,"ELEMENT_SET_NO":999,"REV_AT_EPOCH":1007,"BSTAR":0.00013496,"MEAN_MOTION_DOT":2.406e-5,"MEAN_MOTION_DDOT":0},{"OBJECT_NAME":"STARLINK-30461","OBJECT_ID":"2023-147W","EPOCH":"2023-11-20T10:27:36.361728","MEAN_MOTION":15.15151051,"ECCENTRICITY":0.000123,"INCLINATION":42.9981,"RA_OF_ASC_NODE":221.7769,"ARG_OF_PERICENTER":268.5538,"MEAN_ANOMALY":91.5168,"EPHEMERIS_TYPE":0,"CLASSIFICATION_TYPE":"U","NORAD_CAT_ID":57933,"ELEMENT_SET_NO":999,"REV_AT_EPOCH":1007,"BSTAR":0.00020876,"MEAN_MOTION_DOT":3.758e-5,"MEAN_MOTION_DDOT":0},{"OBJECT_NAME":"STARLINK-30458","OBJECT_ID":"2023-147X","EPOCH":"2023-11-20T02:22:57.617472","MEAN_MOTION":15.15966269,"ECCENTRICITY":0.0001285,"INCLINATION":42.998,"RA_OF_ASC_NODE":223.5496,"ARG_OF_PERICENTER":271.8134,"MEAN_ANOMALY":88.2566,"EPHEMERIS_TYPE":0,"CLASSIFICATION_TYPE":"U","NORAD_CAT_ID":57934,"ELEMENT_SET_NO":999,"REV_AT_EPOCH":1002,"BSTAR":0.00019051,"MEAN_MOTION_DOT":3.492e-5,"MEAN_MOTION_DDOT":0},{"OBJECT_NAME":"STARLINK-30712","OBJECT_ID":"2023-148A","EPOCH":"2023-11-20T07:06:31.659264","MEAN_MOTION":15.18723624,"ECCENTRICITY":0.0001911,"INCLINATION":53.0541,"RA_OF_ASC_NODE":318.1491,"ARG_OF_PERICENTER":96.7105,"MEAN_ANOMALY":263.4107,"EPHEMERIS_TYPE":0,"CLASSIFICATION_TYPE":"U","NORAD_CAT_ID":57935,"ELEMENT_SET_NO":999,"REV_AT_EPOCH":991,"BSTAR":8.8875e-5,"MEAN_MOTION_DOT":1.55e-5,"MEAN_MOTION_DDOT":0},{"OBJECT_NAME":"STARLINK-30716","OBJECT_ID":"2023-148B","EPOCH":"2023-11-20T08:34:32.303712","MEAN_MOTION":15.18727462,"ECCENTRICITY":0.0002195,"INCLINATION":53.056,"RA_OF_ASC_NODE":317.8191,"ARG_OF_PERICENTER":97.4645,"MEAN_ANOMALY":262.6599,"EPHEMERIS_TYPE":0,"CLASSIFICATION_TYPE":"U","NORAD_CAT_ID":57936,"ELEMENT_SET_NO":999,"REV_AT_EPOCH":992,"BSTAR":6.4312e-5,"MEAN_MOTION_DOT":1.033e-5,"MEAN_MOTION_DDOT":0},{"OBJECT_NAME":"STARLINK-30400","OBJECT_ID":"2023-148C","EPOCH":"2023-11-20T10:52:24.669120","MEAN_MOTION":15.18738536,"ECCENTRICITY":0.0002226,"INCLINATION":53.0518,"RA_OF_ASC_NODE":316.9866,"ARG_OF_PERICENTER":103.4121,"MEAN_ANOMALY":256.7121,"EPHEMERIS_TYPE":0,"CLASSIFICATION_TYPE":"U","NORAD_CAT_ID":57937,"ELEMENT_SET_NO":999,"REV_AT_EPOCH":994,"BSTAR":0.00025963,"MEAN_MOTION_DOT":5.144e-5,"MEAN_MOTION_DDOT":0},{"OBJECT_NAME":"STARLINK-30710","OBJECT_ID":"2023-148D","EPOCH":"2023-11-20T14:00:01.000224","MEAN_MOTION":15.22924896,"ECCENTRICITY":7.79e-5,"INCLINATION":53.0533,"RA_OF_ASC_NODE":310.0134,"ARG_OF_PERICENTER":113.6653,"MEAN_ANOMALY":200.6249,"EPHEMERIS_TYPE":0,"CLASSIFICATION_TYPE":"U","NORAD_CAT_ID":57938,"ELEMENT_SET_NO":999,"REV_AT_EPOCH":603,"BSTAR":-0.043461,"MEAN_MOTION_DOT":-0.00954636,"MEAN_MOTION_DDOT":0},{"OBJECT_NAME":"STARLINK-30714","OBJECT_ID":"2023-148E","EPOCH":"2023-11-20T08:33:59.050944","MEAN_MOTION":15.18725127,"ECCENTRICITY":0.0002169,"INCLINATION":53.055,"RA_OF_ASC_NODE":317.8155,"ARG_OF_PERICENTER":92.3324,"MEAN_ANOMALY":267.7919,"EPHEMERIS_TYPE":0,"CLASSIFICATION_TYPE":"U","NORAD_CAT_ID":57939,"ELEMENT_SET_NO":999,"REV_AT_EPOCH":992,"BSTAR":0.00012049,"MEAN_MOTION_DOT":2.215e-5,"MEAN_MOTION_DDOT":0},{"OBJECT_NAME":"STARLINK-30711","OBJECT_ID":"2023-148F","EPOCH":"2023-11-20T11:36:45.273312","MEAN_MOTION":15.18736288,"ECCENTRICITY":0.0001998,"INCLINATION":53.0559,"RA_OF_ASC_NODE":317.1816,"ARG_OF_PERICENTER":97.7761,"MEAN_ANOMALY":262.346,"EPHEMERIS_TYPE":0,"CLASSIFICATION_TYPE":"U","NORAD_CAT_ID":57940,"ELEMENT_SET_NO":999,"REV_AT_EPOCH":994,"BSTAR":0.00010831,"MEAN_MOTION_DOT":1.959e-5,"MEAN_MOTION_DDOT":0},{"OBJECT_NAME":"STARLINK-30715","OBJECT_ID":"2023-148G","EPOCH":"2023-11-20T06:51:55.255680","MEAN_MOTION":15.18727922,"ECCENTRICITY":0.0002158,"INCLINATION":53.0561,"RA_OF_ASC_NODE":318.0861,"ARG_OF_PERICENTER":96.6433,"MEAN_ANOMALY":263.4807,"EPHEMERIS_TYPE":0,"CLASSIFICATION_TYPE":"U","NORAD_CAT_ID":57941,"ELEMENT_SET_NO":999,"REV_AT_EPOCH":991,"BSTAR":9.2134e-5,"MEAN_MOTION_DOT":1.618e-5,"MEAN_MOTION_DDOT":0},{"OBJECT_NAME":"STARLINK-30455","OBJECT_ID":"2023-148H","EPOCH":"2023-11-20T08:19:56.210304","MEAN_MOTION":15.18731177,"ECCENTRICITY":0.0002303,"INCLINATION":53.0564,"RA_OF_ASC_NODE":317.7508,"ARG_OF_PERICENTER":100.8591,"MEAN_ANOMALY":259.2663,"EPHEMERIS_TYPE":0,"CLASSIFICATION_TYPE":"U","NORAD_CAT_ID":57942,"ELEMENT_SET_NO":999,"REV_AT_EPOCH":992,"BSTAR":0.00010972,"MEAN_MOTION_DOT":1.988e-5,"MEAN_MOTION_DDOT":0},{"OBJECT_NAME":"STARLINK-30456","OBJECT_ID":"2023-148J","EPOCH":"2023-11-20T06:44:37.884192","MEAN_MOTION":15.18719663,"ECCENTRICITY":0.000239,"INCLINATION":53.0574,"RA_OF_ASC_NODE":318.054,"ARG_OF_PERICENTER":104.2815,"MEAN_ANOMALY":255.8445,"EPHEMERIS_TYPE":0,"CLASSIFICATION_TYPE":"U","NORAD_CAT_ID":57943,"ELEMENT_SET_NO":999,"REV_AT_EPOCH":991,"BSTAR":5.8227e-5,"MEAN_MOTION_DOT":9.05e-6,"MEAN_MOTION_DDOT":0},{"OBJECT_NAME":"STARLINK-30708","OBJECT_ID":"2023-148K","EPOCH":"2023-11-20T06:37:53.015520","MEAN_MOTION":15.18727428,"ECCENTRICITY":0.0002194,"INCLINATION":53.0553,"RA_OF_ASC_NODE":318.0167,"ARG_OF_PERICENTER":93.7602,"MEAN_ANOMALY":266.3643,"EPHEMERIS_TYPE":0,"CLASSIFICATION_TYPE":"U","NORAD_CAT_ID":57944,"ELEMENT_SET_NO":999,"REV_AT_EPOCH":991,"BSTAR":7.0209e-5,"MEAN_MOTION_DOT":1.157e-5,"MEAN_MOTION_DDOT":0},{"OBJECT_NAME":"STARLINK-30705","OBJECT_ID":"2023-148L","EPOCH":"2023-11-20T06:37:19.317792","MEAN_MOTION":15.18728091,"ECCENTRICITY":0.0001847,"INCLINATION":53.0543,"RA_OF_ASC_NODE":318.0148,"ARG_OF_PERICENTER":96.9771,"MEAN_ANOMALY":263.1433,"EPHEMERIS_TYPE":0,"CLASSIFICATION_TYPE":"U","NORAD_CAT_ID":57945,"ELEMENT_SET_NO":999,"REV_AT_EPOCH":991,"BSTAR":8.8456e-5,"MEAN_MOTION_DOT":1.541e-5,"MEAN_MOTION_DDOT":0},{"OBJECT_NAME":"STARLINK-30704","OBJECT_ID":"2023-148M","EPOCH":"2023-11-20T11:46:20.260128","MEAN_MOTION":15.22448433,"ECCENTRICITY":0.0002686,"INCLINATION":53.0566,"RA_OF_ASC_NODE":312.2447,"ARG_OF_PERICENTER":89.9697,"MEAN_ANOMALY":270.1606,"EPHEMERIS_TYPE":0,"CLASSIFICATION_TYPE":"U","NORAD_CAT_ID":57946,"ELEMENT_SET_NO":999,"REV_AT_EPOCH":1001,"BSTAR":0.00031039,"MEAN_MOTION_DOT":6.949e-5,"MEAN_MOTION_DDOT":0},{"OBJECT_NAME":"STARLINK-30706","OBJECT_ID":"2023-148N","EPOCH":"2023-11-20T11:14:18.914208","MEAN_MOTION":15.18731577,"ECCENTRICITY":0.0002631,"INCLINATION":53.054,"RA_OF_ASC_NODE":317.0786,"ARG_OF_PERICENTER":89.7073,"MEAN_ANOMALY":270.4223,"EPHEMERIS_TYPE":0,"CLASSIFICATION_TYPE":"U","NORAD_CAT_ID":57947,"ELEMENT_SET_NO":999,"REV_AT_EPOCH":994,"BSTAR":0.000254,"MEAN_MOTION_DOT":5.024e-5,"MEAN_MOTION_DDOT":0}]
